SEEDS II (CO-66)        
1 32791U 08021J   26093.71430750  .00032937  00000+0  11258-2 0  9992
2 32791  97.7528  88.2102 0002828 162.0171 198.1170 15.30209689975899
YUBILEINY (RS30)        
1 32953U 08025A   26093.81713208  .00000075  00000+0  46575-3 0  9998
2 32953  82.5051  41.6899 0020382 111.6061 248.7193 12.43177225810459
KKS-1 (KISEKI)          
1 33499U 09002H   26093.83641983  .00003139  00000+0  39358-3 0  9997
2 33499  98.1190  15.1159 0008153 161.3196 198.8318 14.82929351925170
SWISSCUBE               
1 35932U 09051B   26093.72677760  .00002129  00000+0  43120-3 0  9995
2 35932  98.4079   0.3119 0008095  84.5096 275.7028 14.62333554878278
BEESAT-1                
1 35933U 09051C   26093.69804389  .00001748  00000+0  36156-3 0  9998
2 35933  98.4009   0.0720 0006520  96.0515 264.1428 14.61595167878301
ITUPSAT1                
1 35935U 09051E   26093.69249002  .00001618  00000+0  34475-3 0  9993
2 35935  98.4095 359.3360 0008625 106.3239 253.8910 14.60324993877861
XIWANG-1 (HOPE-1)       
1 36122U 09072B   26093.84073729  .00000252  00000+0  77709-3 0  9993
2 36122 100.3960  48.8846 0008023  46.7125 313.4656 13.16437896783229
O/OREOS (USA 219)       
1 37224U 10062C   26093.85199840  .00005674  00000+0  54381-3 0  9996
2 37224  71.9703 248.6757 0015812 214.0698 145.9459 14.93434758105543
JUGNU                   
1 37839U 11058B   26093.57065957  .00000629  00000+0  18845-3 0  9994
2 37839  19.9619  41.7385 0018408 332.7582 182.8423 14.13752914748459
SRMSAT                  
1 37841U 11058D   26093.49447571  .00000510  00000+0  13315-3 0  9990
2 37841  19.9706 151.5655 0011934 101.6708 286.3111 14.11557175747250
STRAND-1                
1 39090U 13009E   26093.48996863  .00000604  00000+0  21758-3 0  9992
2 39090  98.3905 275.5671 0009852  94.3659 265.8654 14.37117624686338
ZACUBE-1 (TSHEPISOSAT)  
1 39417U 13066B   26093.87178786  .00009224  00000+0  71955-3 0  9998
2 39417  97.8146  55.8184 0044929 138.2329 222.2338 15.00579357669586
GOMX-1                  
1 39430U 13066Q   26093.82014675  .00004278  00000+0  64828-3 0  9999
2 39430  97.6538 298.9578 0128207 316.8788  42.2431 14.69202230658990
CUBEBUG-2 (LO-74)       
1 39440U 13066AA  26093.82853031  .00007512  00000+0  70141-3 0  9996
2 39440  97.8855  42.5521 0056529 274.2525  85.2236 14.93254055665895
FUNCUBE-1 (AO-73)       
1 39444U 13066AE  26093.38924273  .00016586  00000+0  10507-2 0  9998
2 39444  97.8228  63.3607 0038996  97.8213 262.7445 15.08390495668387
UWE-3                   
1 39446U 13066AG  26093.80688809  .00007966  00000+0  69038-3 0  9995
2 39446  97.8634  49.4472 0048895 206.0500 153.8259 14.96445183666457
UNISAT-6                
1 40012U 14033C   26093.69336598  .00005893  00000+0  63937-3 0  9992
2 40012  97.7774 247.7787 0044274 315.0889  44.6749 14.87815666635085
DUCHIFAT-1              
1 40021U 14033M   26093.59668116  .00099729  00000+0  15697-2 0  9995
2 40021  98.0568 143.0176 0003211 353.7657   6.3554 15.53236115644133
QB50P1                  
1 40025U 14033R   26093.58092979  .00015793  00000+0  79934-3 0  9990
2 40025  98.0999  99.5565 0010578 116.9605 243.2708 15.17064692641711
LILACSAT-2              
1 40908U 15049K   26093.84636213  .00029807  00000+0  55012-3 0  9994
2 40908  97.4753 127.9557 0008397 149.9828 210.1906 15.49024995584231
FOX-1A (AO-85)          
1 40967U 15058D   26093.55296024  .00004452  00000+0  40336-3 0  9991
2 40967  64.7748 150.8413 0128327  85.9251 275.6517 14.90533224102446
CAS-2T & KS-1Q          
1 41847U 16066G   26093.78139233  .00001528  00000+0  22344-3 0  9992
2 41847  98.3851 170.3531 0342194 355.5249   4.2903 14.44537776494054
RADFXSAT (FOX-1B)       
1 43017U 17073E   26093.62540232  .00014886  00000+0  66638-3 0  9995
2 43017  97.4816 322.3997 0152878 225.3949 133.4727 15.11407884454124
DIWATA-2B               
1 43678U 18084H   26093.80396244  .00004155  00000+0  33782-3 0  9995
2 43678  98.1035 286.8733 0013844  53.5159 306.7336 15.00098715405060
ES'HAIL 2               
1 43700U 18090A   26093.82482203  .00000143  00000+0  00000+0 0  9997
2 43700   0.0194 222.4294 0001203 154.6509 137.8405  1.00268971 26933
FOX-1CLIFF (AO-95)      
1 43770U 18099N   26093.71270929  .00021807  00000+0  87145-3 0  9990
2 43770  97.4456 154.2995 0007701 244.2028 115.8415 15.25112724401864
ITASAT                  
1 43786U 18099AE  26093.69362463  .00013481  00000+0  66266-3 0  9999
2 43786  97.4111 146.7144 0011377 248.9874 111.0144 15.18100892401609
JY1SAT (JO-97)          
1 43803U 18099AX  26093.13440990  .00033234  00000+0  10985-2 0  9994
2 43803  97.4203 155.8195 0006604 165.3182 194.8252 15.31275054402135
UWE-4                   
1 43880U 18111E   26093.74276504  .00048285  00000+0  11372-2 0  9992
2 43880  97.5859  18.9721 0006633 217.4992 142.5792 15.41768090399291
TIANYAN 01              
1 44881U 19093C   26093.86311263  .00000914  00000+0  10954-3 0  9992
2 44881  97.7575 167.9006 0012998 337.6627  22.4021 14.86396323340372
RS-44 & BREEZE-KM R/B   
1 44909U 19096E   26093.88982963  .00000020  00000+0  43775-4 0  9995
2 44909  82.5254  29.0702 0216827 318.3629  40.1135 12.79747802292848
SALSAT                  
1 46495U 20068K   26093.87835587  .00015748  00000+0  56600-3 0  9999
2 46495  97.8863  92.4843 0009435 192.9205 167.1793 15.28698667304009
XW-3 (CAS-9)            
1 50466U 21131B   26093.84359834  .00001037  00000+0  33447-3 0  9997
2 50466  98.4953 186.6531 0003406 338.1432  21.9611 14.41285108224404
GREENCUBE (IO-117)      
1 53109U 22080E   26090.98863878 -.00000003  00000+0  00000+0 0  9996
2 53109  70.1536 325.1039 0008975 306.3934  53.5898  6.42583190 87104
UMKA 1 (RS40S)          
1 57172U 23091G   26093.85504490  .00012493  00000+0  58156-3 0  9998
2 57172  97.5121 152.8573 0013362  26.0469 334.1435 15.19988990152710
CUBESX-HSE 3 (RS42S)    
1 57178U 23091N   26093.82557431  .00025352  00000+0  88834-3 0  9998
2 57178  97.5153 158.5563 0010668   4.1747 355.9580 15.29404885153052
MONITOR-3 (RS58S)       
1 57180U 23091Q   26093.82626883  .00020683  00000+0  79476-3 0  9993
2 57180  97.5148 156.7860 0011803   9.9241 350.2228 15.26396035152941
MONITOR-4 (RS57S)       
1 57182U 23091S   26093.80994429  .00020833  00000+0  79833-3 0  9991
2 57182  97.5142 156.7362 0011736  10.2412 349.9063 15.26486410152943
MONITOR-2 (RS39S)       
1 57184U 23091U   26093.85277929  .00010599  00000+0  51994-3 0  9993
2 57184  97.5143 152.6258 0011590  19.5297 340.6379 15.18233823152673
SVYATOBOR 1 (RS60S)     
1 57187U 23091X   26093.82966907  .00018125  00000+0  71915-3 0  9992
2 57187  97.5156 157.2821 0009285   4.1425 355.9888 15.25379601152978
VIZARD-METEO (RS38S)    
1 57189U 23091Z   26093.82478346  .00031645  00000+0  96883-3 0  9992
2 57189  97.5146 161.9348 0006579 345.8777  14.2280 15.33741533153285
NANOZOND 1 (RS49S)      
1 57190U 23091AA  26093.86702367  .00692134  19393-3  22034-2 0  9992
2 57190  97.4971 176.3916 0006840 261.2153  98.8345 15.91108974154251
POLYTECH-UNIVERSE 3 (R*)
1 57191U 23091AB  26093.82376090  .00010489  00000+0  51085-3 0  9996
2 57191  97.5123 152.1028 0016399  33.8958 326.3321 15.18427577152662
UTMN 2 (RS27S)          
1 57203U 23091AP  26093.81950306  .00024931  00000+0  85135-3 0  9997
2 57203  97.5146 160.0924 0007585 352.8537   7.2594 15.30274591153161
KUZGTU 1 (RS47S)        
1 57217U 23091AV  26093.82046780  .00023249  00000+0  84522-3 0  9995
2 57217  97.5126 157.6156 0010956   7.7066 352.4339 15.28213344153014
SONATE-2                
1 59112U 24043Q   26093.34798107  .00055562  00000+0  87233-3 0  9998
2 59112  97.5444 239.5066 0007756 118.5749 241.6285 15.53455991116254
MESAT1                  
1 60209U 24125G   26093.54346489  .00066563  00000+0  94554-3 0  9999
2 60209  97.2406 309.6898 0012660 131.3894 228.8452 15.56097670 97939
OOV-CUBE (TUBSAT-30)    
1 60240U 24128F   26093.45585642  .00003982  00000+0  30601-3 0  9992
2 60240  61.9934 126.0853 0052464 117.4420 243.2020 15.02412047 94889
COLIBRI-S (RS67S)       
1 61746U 24199M   26093.82983415  .00037754  00000+0  80661-3 0  9998
2 61746  97.3108 327.1306 0009043 179.1439 180.9827 15.44710817125928
HORS 3 (RS81S)          
1 61753U 24199U   26093.83666564  .00058056  00000+0  10228-2 0  9999
2 61753  97.3080 328.4306 0007186 178.5500 181.5774 15.50215595126027
HORS 4 (RS82S)          
1 61754U 24199V   26093.85568560  .00078068  00000+0  12206-2 0  9992
2 61754  97.3049 329.2528 0006850 173.5572 186.5770 15.53486965126080
HORIZON (RS59S)         
1 61757U 24199Y   26093.85515547  .00325636  00000+0  17529-2 0  9991
2 61757  97.2992 333.9255 0006370 150.2770 209.8861 15.79300226126383
ARCTICSAT 1 (RS74S)     
1 61762U 24199AD  26093.83100043  .00216024  00000+0  16174-2 0  9991
2 61762  97.3019 333.2101 0006636 147.2054 212.9623 15.71991353126334
SIT-2086                
1 61764U 24199AF  26093.79829153  .00038266  00000+0  70533-3 0  9998
2 61764  97.3069 329.0850 0007103 167.8207 192.3217 15.49021224122908
HYPERVIEW 1G (RS66S)    
1 61772U 24199AP  26093.84068295  .00127522  00000+0  14471-2 0  9997
2 61772  97.3025 330.6281 0008250 172.9730 187.1645 15.61900603123029
ALTAIR (RS65S)          
1 61779U 24199AW  26093.85997958  .00019858  00000+0  57376-3 0  9996
2 61779  97.3134 323.7335 0012359 206.1466 153.9155 15.35608625125705
ASRTU-1 (AO-123)        
1 61781U 24199AY  26093.85545808  .00015928  00000+0  47600-3 0  9995
2 61781  97.3106 323.2100 0013240 209.1191 150.9316 15.34580814122521
TUSUR GO (RS78S)        
1 61782U 24199AZ  26093.84996447  .00403399  00000+0  19681-2 0  9994
2 61782  97.2940 332.9569 0006718 161.1240 199.0279 15.81270007123184
SAMSAT-IONOSPHERE (RS7*)
1 61784U 24199BB  26093.83932712  .00067886  00000+0  11307-2 0  9994
2 61784  97.3063 328.2739 0009870 183.3194 176.7995 15.51733985126014
